TRANSPORTER-12 OBJECT BT
1 62674U 25009BT  26068.71416991  .00013824  00000+0  51029-3 0  9998
2 62674  97.4094 151.5992 0003682 313.5044  46.5889 15.27872239121360
STARLINK-33963          
1 63968U 25099S   26067.67090274  .00035994  00000+0  13112-2 0  9992
2 63968  42.9946 181.6926 0000985 305.2913  54.7846 15.27577129 47186
